TDRS 3                  
1 19548U 88091B   17052.08476175 -.00000300  00000-0  00000+0 0  9999
2 19548  14.8771   9.3500 0039365 310.6518 159.2211  1.00265588 91246
HST                     
1 20580U 90037B   17051.56320602  .00000679  00000-0  31054-4 0  9991
2 20580  28.4705  58.0980 0002758   4.8658 275.0510 15.08675587272650
TDRS 5                  
1 21639U 91054B   17051.26622476  .00000085  00000-0  00000+0 0  9991
2 21639  14.2986  22.6631 0025439 335.9297  80.0021  1.00278065 93578
TDRS 6                  
1 22314U 93003B   17051.31415010 -.00000295  00000-0  00000+0 0  9992
2 22314  13.8170  25.5692 0007990 294.6419 257.5606  1.00273244 88249
TDRS 7                  
1 23613U 95035B   17051.61688873 -.00000202  00000-0  00000+0 0  9992
2 23613  14.9329  16.3723 0023086  17.4741  63.8290  1.00272196 79024
ISS (ZARYA)             
1 25544U 98067A   17052.28474537  .00002801  00000-0  49082-4 0  9993
2 25544  51.6426 256.0773 0006653 213.8207 116.2995 15.54405043 43729
LANDSAT 7               
1 25682U 99020A   17052.07389993  .00000006  00000-0  11402-4 0  9994
2 25682  98.2231 124.7802 0001218  58.0864 302.0467 14.57101863949681
TERRA                   
1 25994U 99068A   17052.08458416 -.00000153  00000-0 -24006-4 0  9999
2 25994  98.2059 128.7337 0001280  78.7258 281.4094 14.57110536913760
TDRS 8                  
1 26388U 00034A   17051.49290090 -.00000231  00000-0  00000+0 0  9997
2 26388   7.2967  56.8427 0008492 227.3644 132.6914  1.00263904 61045
EO-1                    
1 26619U 00075A   17052.09587862  .00000076  00000-0  22774-4 0  9995
2 26619  97.8485  86.7302 0010913 113.1564 247.0780 14.64366716866549
TIMED                   
1 26998U 01055B   17051.82594229  .00000187  00000-0  24483-4 0  9991
2 26998  74.0724 186.6562 0002187 259.5922 100.5012 14.87853823824176
TDRS 9                  
1 27389U 02011A   17051.30986743 -.00000109  00000-0  00000+0 0  9997
2 27389   5.0099  80.5837 0023096 239.2703 290.0344  1.00271324 56307
AQUA                    
1 27424U 02022A   17051.23757417  .00000136  00000-0  40252-4 0  9992
2 27424  98.2266 354.2555 0001952  97.1447  40.2407 14.57102202787241
TDRS 10                 
1 27566U 02055A   17051.23018617  .00000072  00000-0  00000+0 0  9998
2 27566   4.8322  58.9379 0013127 229.3900 130.6858  1.00266009 52098
SORCE                   
1 27651U 03004A   17051.03910732  .00000175  00000-0  32647-4 0  9996
2 27651  39.9946 254.5139 0021567 137.1802 223.0671 14.88585771763332
AURA                    
1 28376U 04026A   17051.49169517  .00000156  00000-0  44696-4 0  9999
2 28376  98.2277 356.6790 0001506  79.5985 280.5383 14.57105914670339
SWIFT                   
1 28485U 04047A   17051.52885366  .00001135  00000-0  48924-4 0  9990
2 28485  20.5559 230.1980 0011363 204.2833 155.7065 15.03579773670621
THEMIS A                
1 30580U 07004A   17053.11262519 -.00003174  00000-0 -69286+0 0  9997
2 30580   6.4479 231.2284 8433203  78.0794   2.6102  0.87731594 36068
THEMIS D                
1 30797U 07004D   17050.83605382 -.00000616  00000-0 -19672-1 0  9996
2 30797   3.2496 179.5497 8242572 138.8895 325.6556  1.00211729 36314
THEMIS E                
1 30798U 07004E   17051.85502431 -.00000491  00000-0  26951-1 0  9999
2 30798   3.6937 213.7518 8243205 105.4940   0.0112  1.00247819 36444
AIM                     
1 31304U 07015A   17051.08226968  .00001407  00000-0  86490-4 0  9992
2 31304  97.9912 224.6186 0005650 161.8248 198.3184 15.11828471537248
FGRST (GLAST)           
1 33053U 08029A   17052.16374118  .00000668  00000-0  21929-4 0  9996
2 33053  25.5832  73.2657 0012617  21.9373 338.1701 15.10823596479758
WISE                    
1 36119U 09071A   17051.54599652  .00001258  00000-0  48851-4 0  9992
2 36119  97.4626  79.2512 0003381  37.2530 322.8943 15.27970175398462
TDRS 11                 
1 39070U 13004A   17050.97199720  .00000090  00000-0  00000+0 0  9992
2 39070   5.5437 328.7733 0011446 300.4576  59.5123  1.00274196 14852
TDRS 12                 
1 39504U 14004A   17049.63536439 -.00000275  00000-0  00000+0 0  9994
2 39504   6.1017 336.2350 0003356 351.5010   8.5694  1.00280154 11300
GPM-CORE                
1 39574U 14009C   17052.14859633  .00007073  00000-0  10639-3 0  9995
2 39574  65.0107 314.4254 0010708 283.2450  76.7502 15.55624186169479
MMS 1                   
1 40482U 15011A   17047.64617483 -.00000383  00000-0  00000+0 0  9998
2 40482  28.5612 312.5353 8265140 147.4183 128.7573  0.91202748  7092
MMS 2                   
1 40483U 15011B   17048.90656250 -.00000389  00000-0  00000+0 0  9990
2 40483  28.5174 312.4333 8351395 147.5640 198.9066  0.83998404  7098
MMS 3                   
1 40484U 15011C   17051.83170663 -.00000275  00000-0  00000+0 0  9990
2 40484  28.5336 312.2502 8355337 147.9060   5.5543  0.83989702  7134
MMS 4                   
1 40485U 15011D   17047.06250000 -.00000424  00000-0  00000+0 0  9991
2 40485  28.5511 312.6404 8349108 147.2942   5.5728  0.83994391  7074
